{
  "norad_id": 48466,
  "name": "STARLINK-2687",
  "history": [
    {
      "epoch": "2026-03-28T10:59:26.809152Z",
      "apogee_km": 475.9451350809004,
      "perigee_km": 474.50894411276295,
      "latitude_deg": -5.509416453272101e-06,
      "longitude_deg": 113.18898003228844,
      "height_km": 476.0490120682422,
      "semi_major_axis_km": 6853.364039596831,
      "eccentricity": 0.00010478,
      "inclination_deg": 53.1584,
      "raan_deg": 103.9288,
      "arg_perigee_deg": 83.9054,
      "mean_anomaly_deg": 276.2066,
      "mean_motion_rev_day": 15.30195991
    },
    {
      "epoch": "2026-03-29T04:14:01.716000Z",
      "apogee_km": 475.892383467185,
      "perigee_km": 474.4600410058274,
      "latitude_deg": -1.6021717643783786e-05,
      "longitude_deg": -149.50201918799783,
      "height_km": 476.0288825647331,
      "semi_major_axis_km": 6853.313212236506,
      "eccentricity": 0.0001045,
      "inclination_deg": 53.1584,
      "raan_deg": 100.5914,
      "arg_perigee_deg": 86.3535,
      "mean_anomaly_deg": 273.7585,
      "mean_motion_rev_day": 15.30213014
    }
  ]
}